OBJECT_NAME,OBJECT_ID,EPOCH,MEAN_MOTION,ECCENTRICITY,INCLINATION,RA_OF_ASC_NODE,ARG_OF_PERICENTER,MEAN_ANOMALY,EPHEMERIS_TYPE,CLASSIFICATION_TYPE,NORAD_CAT_ID,ELEMENT_SET_NO,REV_AT_EPOCH,BSTAR,MEAN_MOTION_DOT,MEAN_MOTION_DDOT
HST,1990-037B,2026-07-17T06:14:47.549184,15.31073496,.00021865,28.4720,234.9835,123.3656,236.7149,0,U,20580,999,79318,.97528885E-4,.3243E-4,0
POLAR,1996-013A,2026-07-15T12:51:31.760064,1.29846063,.6498828,79.8926,226.7156,208.1023,91.7323,0,U,23802,999,14523,0,.188E-5,0
SWAS,1998-071A,2026-07-16T23:08:16.531872,15.09753674,.000782,69.8942,150.7213,228.6188,131.4305,0,U,25560,999,50176,.10348147E-3,.1569E-4,0
CXO,1999-040B,2026-07-20T02:43:32.333088,0.37806069,.7780937,56.6395,115.7467,310.0076,0.5836,0,U,25867,999,1744,0,.551E-5,0
XMM-NEWTON,1999-066A,2026-07-18T06:21:44.482752,0.50127855,.46650361,64.3180,282.5861,64.3602,359.9798,0,U,25989,999,2315,0,-.5E-7,0
TERRA,1999-068A,2026-07-17T05:17:14.388288,14.61124594,.00034892,97.9440,246.5733,118.7184,314.4319,0,U,25994,999,41399,.43912467E-4,.172E-5,0
CLUSTER II-FM7 (SAMBA),2000-041A,2026-07-16T03:20:59.007840,0.44844033,.90886903,149.8273,56.2567,273.7641,359.2168,0,U,26410,999,2044,0,.51232E-3,-.58450349E-4
CLUSTER II-FM8 (TANGO),2000-045B,2026-07-14T10:49:36.782688,0.44421596,.909146,150.0407,57.1141,274.4512,1.9889,0,U,26464,999,2043,0,.19821E-3,0
ODIN,2001-007A,2026-07-17T01:38:28.151232,15.90578805,.0005205,97.3705,241.2154,152.9850,207.1695,0,U,26702,999,39412,.95322753E-3,.291443E-2,.33378932E-4
TIMED,2001-055B,2026-07-16T23:32:41.139744,14.95346620,.00022629,74.0666,175.0261,298.9888,61.1069,0,U,26998,999,33527,.53380084E-4,.549E-5,0
CORIOLIS,2003-001A,2026-07-17T00:05:30.410016,14.19952170,.00149799,98.7135,204.4341,124.2570,236.0028,0,U,27640,999,21845,.366759E-4,.34E-6,0
SORCE,2003-004A,2026-07-17T03:46:13.097856,15.03847260,.00187718,39.9913,90.6665,267.5822,92.2823,0,U,27651,999,27641,.99493317E-4,.1244E-4,0
MOST,2003-031D,2026-07-17T06:29:44.486592,14.21327955,.00102255,98.7054,205.5775,159.2786,200.8808,0,U,27843,999,19498,.24168943E-4,.9E-7,0
SCISAT 1,2003-036A,2026-07-16T22:31:13.190304,14.81480004,.00072829,73.9301,112.2315,179.8703,180.2477,0,U,27858,999,23585,.37793023E-4,.259E-5,0
SWIFT,2004-047A,2026-07-16T14:36:13.286304,15.71279814,.0002327,20.5526,317.4567,39.5512,320.5104,0,U,28485,999,19149,.30413E-3,.41559E-3,0
HINODE (SOLAR-B),2006-041A,2026-07-17T07:10:58.503936,14.68659630,.0017198,98.0548,214.0079,187.6928,172.4016,0,U,29479,999,5929,.54162056E-4,.267E-5,0
SHIJIAN-6 02A (SJ-6 02A),2006-046A,2026-07-17T07:11:31.646976,15.17257662,.00042285,97.6340,239.5960,59.4323,300.7327,0,U,29505,999,7683,.83916301E-4,.1601E-4,0
SHIJIAN-6 02B (SJ-6 02B),2006-046B,2026-07-17T08:04:57.545760,15.01439543,.00131584,97.7139,227.2085,328.7992,31.2450,0,U,29506,999,7526,.3155833E-4,.347E-5,0
FGRST (GLAST),2008-029A,2026-07-16T19:45:43.572672,15.24082163,.00078366,25.5830,358.6806,319.2745,40.7207,0,U,33053,999,21,.63773662E-4,.193E-4,0
SDO,2010-005A,2026-07-17T05:45:45.515232,1.00277241,.00017897,34.7122,85.8846,45.4972,147.9067,0,U,36395,999,6036,0,-.96E-6,0
CRYOSAT 2,2010-013A,2026-07-17T06:26:42.758016,14.51898856,.00024189,92.0358,284.6146,98.7314,261.4168,0,U,36508,999,86244,.25799873E-4,.107E-5,0
X-SAT,2011-015C,2026-07-17T06:33:36.568224,14.25214783,.00127201,98.3528,173.8670,254.2416,105.7362,0,U,37389,999,79196,.12830903E-3,.26E-5,0
GCOM-W1 (SHIZUKU),2012-025A,2026-07-17T08:02:27.264192,14.57091170,.00012977,98.2024,138.4348,78.4637,83.1827,0,U,38337,999,75342,.51994801E-4,.189E-5,0
NUSTAR,2012-031A,2026-07-17T06:00:02.000160,15.09047759,.00084964,6.0251,168.5742,201.9691,200.0095,0,U,38358,999,130,.36363609E-3,.6799E-4,0
NEOSSAT,2013-009D,2026-07-16T23:10:25.379328,14.35836026,.00115504,98.4192,17.2921,152.1982,207.9824,0,U,39089,999,70101,.29613668E-4,.43E-6,0
BRITE-AUSTRIA,2013-009F,2026-07-16T22:47:05.464320,14.36552927,.00108579,98.4010,16.6507,145.7302,214.4587,0,U,39091,999,70132,.37190554E-4,.67E-6,0
IRIS,2013-033A,2026-07-17T06:22:44.191200,14.85939174,.00234658,97.9318,37.4480,217.9016,142.0548,0,U,39197,999,70484,.63213536E-4,.498E-5,0
HISAKI (SPRINT-A),2013-049A,2026-07-17T02:28:54.436512,13.55546838,.01369862,29.7215,67.9110,259.3468,99.1650,0,U,39253,999,63548,.31566359E-4,.9E-6,0
CASSIOPE,2013-055A,2026-07-17T05:57:52.518528,15.27493506,.02825508,80.9127,30.1371,320.9115,37.1995,0,U,39265,999,67225,.17848763E-3,.16695E-3,-.539465E-6
STSAT-3,2013-066G,2026-07-17T04:59:43.207872,15.02893402,.00088729,97.6196,167.6121,297.3233,62.7088,0,U,39422,999,68871,.14226037E-3,.1849E-4,0
